{
  "type": "FeatureCollection",
  "features": [
    {
      "type": "Feature",
      "properties": {
        "norad_id": 34459,
        "name": "COSMOS 2251 DEB",
        "group": "cosmos-2251-debris",
        "lat": 64.89015617805406,
        "lon": 53.9504935340068,
        "alt_km": 965.9228891485509,
        "timestamp": "2025-12-02T15:49:07.588706+00:00",
        "meta_object_name": "COSMOS 2251 DEB",
        "meta_object_id": "1993-036TC",
        "meta_epoch": "2025-12-01T20:26:41.411616",
        "meta_mean_motion": 14.00463848,
        "meta_eccentricity": 0.0191841,
        "meta_inclination": 74.0791,
        "meta_ra_of_asc_node": 272.8664,
        "meta_arg_of_pericenter": 345.1217,
        "meta_mean_anomaly": 14.4317,
        "meta_ephemeris_type": 0,
        "meta_classification_type": "U",
        "meta_norad_cat_id": 34459,
        "meta_element_set_no": 999,
        "meta_rev_at_epoch": 85559,
        "meta_bstar": 0.00064505561,
        "meta_mean_motion_dot": 1.098e-05,
        "meta_mean_motion_ddot": 0,
        "tle_line1": "1 34459U 93036TC  25335.85186819  .00001098  00000+0  64506-3 0  9991",
        "tle_line2": "2 34459  74.0791 272.8664 0191841 345.1217  14.4317 14.00463848855597"
      },
      "geometry": {
        "type": "Point",
        "coordinates": [
          53.9504935340068,
          64.89015617805406
        ]
      }
    },
    {
      "type": "Feature",
      "properties": {
        "norad_id": 34464,
        "name": "COSMOS 2251 DEB",
        "group": "cosmos-2251-debris",
        "lat": 18.156697749440955,
        "lon": 105.06081072227478,
        "alt_km": 495.92921709674556,
        "timestamp": "2025-12-02T15:49:07.588716+00:00",
        "meta_object_name": "COSMOS 2251 DEB",
        "meta_object_id": "1993-036TH",
        "meta_epoch": "2025-12-01T17:41:19.975200",
        "meta_mean_motion": 15.2460297,
        "meta_eccentricity": 0.00176693,
        "meta_inclination": 73.9897,
        "meta_ra_of_asc_node": 101.6087,
        "meta_arg_of_pericenter": 270.4716,
        "meta_mean_anomaly": 89.4459,
        "meta_ephemeris_type": 0,
        "meta_classification_type": "U",
        "meta_norad_cat_id": 34464,
        "meta_element_set_no": 999,
        "meta_rev_at_epoch": 89672,
        "meta_bstar": 0.0029264417,
        "meta_mean_motion_dot": 0.00073186,
        "meta_mean_motion_ddot": 0,
        "tle_line1": "1 34464U 93036TH  25335.73703675  .00073186  00000+0  29264-2 0  9997",
        "tle_line2": "2 34464  73.9897 101.6087 0017669 270.4716  89.4459 15.24602970896722"
      },
      "geometry": {
        "type": "Point",
        "coordinates": [
          105.06081072227478,
          18.156697749440955
        ]
      }
    },
    {
      "type": "Feature",
      "properties": {
        "norad_id": 34468,
        "name": "COSMOS 2251 DEB",
        "group": "cosmos-2251-debris",
        "lat": -21.491123056912077,
        "lon": -37.42868780345641,
        "alt_km": 729.373716986006,
        "timestamp": "2025-12-02T15:49:07.588726+00:00",
        "meta_object_name": "COSMOS 2251 DEB",
        "meta_object_id": "1993-036TM",
        "meta_epoch": "2025-12-02T04:55:39.940032",
        "meta_mean_motion": 14.47580591,
        "meta_eccentricity": 0.00762557,
        "meta_inclination": 74.0113,
        "meta_ra_of_asc_node": 136.9392,
        "meta_arg_of_pericenter": 283.9873,
        "meta_mean_anomaly": 75.2815,
        "meta_ephemeris_type": 0,
        "meta_classification_type": "U",
        "meta_norad_cat_id": 34468,
        "meta_element_set_no": 999,
        "meta_rev_at_epoch": 88309,
        "meta_bstar": 0.00039641008,
        "meta_mean_motion_dot": 1.484e-05,
        "meta_mean_motion_ddot": 0,
        "tle_line1": "1 34468U 93036TM  25336.20532338  .00001484  00000+0  39641-3 0  9993",
        "tle_line2": "2 34468  74.0113 136.9392 0076255 283.9873  75.2815 14.47580591883091"
      },
      "geometry": {
        "type": "Point",
        "coordinates": [
          -37.42868780345641,
          -21.491123056912077
        ]
      }
    },
    {
      "type": "Feature",
      "properties": {
        "norad_id": 34472,
        "name": "COSMOS 2251 DEB",
        "group": "cosmos-2251-debris",
        "lat": 32.66404056041905,
        "lon": -75.81149777248119,
        "alt_km": 1039.0723826653002,
        "timestamp": "2025-12-02T15:49:07.588736+00:00",
        "meta_object_name": "COSMOS 2251 DEB",
        "meta_object_id": "1993-036TR",
        "meta_epoch": "2025-11-30T08:45:33.274080",
        "meta_mean_motion": 13.70299802,
        "meta_eccentricity": 0.03272305,
        "meta_inclination": 74.0853,
        "meta_ra_of_asc_node": 118.499,
        "meta_arg_of_pericenter": 252.162,
        "meta_mean_anomaly": 104.3557,
        "meta_ephemeris_type": 0,
        "meta_classification_type": "U",
        "meta_norad_cat_id": 34472,
        "meta_element_set_no": 999,
        "meta_rev_at_epoch": 83557,
        "meta_bstar": 0.0011470938,
        "meta_mean_motion_dot": 1.453e-05,
        "meta_mean_motion_ddot": 0,
        "tle_line1": "1 34472U 93036TR  25334.36496845  .00001453  00000+0  11471-2 0  9991",
        "tle_line2": "2 34472  74.0853 118.4990 0327230 252.1620 104.3557 13.70299802835570"
      },
      "geometry": {
        "type": "Point",
        "coordinates": [
          -75.81149777248119,
          32.66404056041905
        ]
      }
    },
    {
      "type": "Feature",
      "properties": {
        "norad_id": 34474,
        "name": "COSMOS 2251 DEB",
        "group": "cosmos-2251-debris",
        "lat": 53.09152021366705,
        "lon": 6.113213122504147,
        "alt_km": 723.6350392316854,
        "timestamp": "2025-12-02T15:49:07.588746+00:00",
        "meta_object_name": "COSMOS 2251 DEB",
        "meta_object_id": "1993-036TT",
        "meta_epoch": "2025-12-02T02:12:14.270112",
        "meta_mean_motion": 14.0630808,
        "meta_eccentricity": 0.01977108,
        "meta_inclination": 74.0785,
        "meta_ra_of_asc_node": 344.7657,
        "meta_arg_of_pericenter": 61.3569,
        "meta_mean_anomaly": 4.2415,
        "meta_ephemeris_type": 0,
        "meta_classification_type": "U",
        "meta_norad_cat_id": 34474,
        "meta_element_set_no": 999,
        "meta_rev_at_epoch": 85359,
        "meta_bstar": 0.0017120979,
        "meta_mean_motion_dot": 3.347e-05,
        "meta_mean_motion_ddot": 0,
        "tle_line1": "1 34474U 93036TT  25336.09183183  .00003347  00000+0  17121-2 0  9995",
        "tle_line2": "2 34474  74.0785 344.7657 0197710  61.3569   4.2415 14.06308080853592"
      },
      "geometry": {
        "type": "Point",
        "coordinates": [
          6.113213122504147,
          53.09152021366705
        ]
      }
    },
    {
      "type": "Feature",
      "properties": {
        "norad_id": 34476,
        "name": "COSMOS 2251 DEB",
        "group": "cosmos-2251-debris",
        "lat": -9.980429159764167,
        "lon": -77.61316967086698,
        "alt_km": 1110.208043316993,
        "timestamp": "2025-12-02T15:49:07.588756+00:00",
        "meta_object_name": "COSMOS 2251 DEB",
        "meta_object_id": "1993-036TV",
        "meta_epoch": "2025-12-01T09:20:26.803104",
        "meta_mean_motion": 13.81864816,
        "meta_eccentricity": 0.0318741,
        "meta_inclination": 74.0058,
        "meta_ra_of_asc_node": 101.6327,
        "meta_arg_of_pericenter": 323.7354,
        "meta_mean_anomaly": 34.2529,
        "meta_ephemeris_type": 0,
        "meta_classification_type": "U",
        "meta_norad_cat_id": 34476,
        "meta_element_set_no": 999,
        "meta_rev_at_epoch": 83481,
        "meta_bstar": 0.0030092445,
        "meta_mean_motion_dot": 4.729e-05,
        "meta_mean_motion_ddot": 0,
        "tle_line1": "1 34476U 93036TV  25335.38919911  .00004729  00000+0  30092-2 0  9991",
        "tle_line2": "2 34476  74.0058 101.6327 0318741 323.7354  34.2529 13.81864816834816"
      },
      "geometry": {
        "type": "Point",
        "coordinates": [
          -77.61316967086698,
          -9.980429159764167
        ]
      }
    },
    {
      "type": "Feature",
      "properties": {
        "norad_id": 34477,
        "name": "COSMOS 2251 DEB",
        "group": "cosmos-2251-debris",
        "lat": -66.94825328716503,
        "lon": -48.81831803347988,
        "alt_km": 661.023612394134,
        "timestamp": "2025-12-02T15:49:07.588766+00:00",
        "meta_object_name": "COSMOS 2251 DEB",
        "meta_object_id": "1993-036TW",
        "meta_epoch": "2025-12-02T02:17:21.621696",
        "meta_mean_motion": 14.56728064,
        "meta_eccentricity": 0.0076857,
        "meta_inclination": 73.9783,
        "meta_ra_of_asc_node": 89.782,
        "meta_arg_of_pericenter": 278.8737,
        "meta_mean_anomaly": 259.5607,
        "meta_ephemeris_type": 0,
        "meta_classification_type": "U",
        "meta_norad_cat_id": 34477,
        "meta_element_set_no": 999,
        "meta_rev_at_epoch": 88470,
        "meta_bstar": 0.001022272,
        "meta_mean_motion_dot": 4.728e-05,
        "meta_mean_motion_ddot": 0,
        "tle_line1": "1 34477U 93036TW  25336.09538914  .00004728  00000+0  10223-2 0  9994",
        "tle_line2": "2 34477  73.9783  89.7820 0076857 278.8737 259.5607 14.56728064884707"
      },
      "geometry": {
        "type": "Point",
        "coordinates": [
          -48.81831803347988,
          -66.94825328716503
        ]
      }
    }
  ]
}